              M50 Cartesian                         M50 Keplerian  
    -----------------------------------       --------------------------------
     X    =       -4156213.09                 A    =         6777256.16  meter
     Y    =       -1148773.70  meter          E    =           .0015736
     Z    =       -5241874.51                 I    =           51.29023
     XDOT =       3009.198081                 Wp   =           96.58690
     YDOT =      -6988.834719  meter/sec      RA   =          298.48216  deg
     ZDOT =       -858.325505                 TA   =          165.17728
                                              MA   =          165.13110
                                              Ha   =            221.583  n.mi
                                              Hp   =            213.777
 
              M50 Cartesian                         J2K Cartesian  
    -----------------------------------       --------------------------------
     X    =      -13635869.72                 X    =        -4117595.47
     Y    =       -3768942.59  feet           Y    =        -1195035.31  meter
     Z    =      -17197751.03                 Z    =        -5261970.62
     XDOT =       9872.697115                 XDOT =        3091.294838
     YDOT =     -22929.247765  feet/sec       YDOT =       -6954.724765  meter/sec
     ZDOT =      -2816.028560                 ZDOT =        -843.508241
 
              TDR Cartesian                         TDR Cartesian  
    -----------------------------------       --------------------------------
     X    =        8809813.56                 X    =         2685231.17
     Y    =      -10929881.80  feet           Y    =        -3331427.97  meter
     Z    =      -17286682.18                 Z    =        -5268980.73
     XDOT =      16353.274624                 XDOT =        4984.478105
     YDOT =      17508.618023  feet/sec       YDOT =        5336.626773  meter/sec
     ZDOT =      -2749.133066                 ZDOT =        -837.935758
  
  
    The mean element set is posted at the UTC for which position is
    just north of the next ascending node relative to the above
    vector time
 
 
    TWO LINE MEAN ELEMENT SET
  
    ISS
    1 25544U 98067A   17332.51753578  .00016717  00000-0  10270-3 0  9060
    2 25544  51.6384 299.1113 0003704 161.0893 199.0398 15.54242988  7304
  
  
    Satellite: ISS
    Catalog Number: 25544
    Epoch time:      17332.51753578   =   yrday.fracday
    Element set:     906
    Inclination:       51.6384  deg
    RA of node:       299.1113  deg
    Eccentricity:     .0003704     
    Arg of perigee:   161.0893  deg
    Mean anomaly:     199.0398  deg
    Mean motion:   15.54242988  rev/day
    Decay rate:    1.67170E-04  rev/day^2
    Epoch rev:             730
    Checksum:              328
 
 
    Coasting Arc #8 (Orbit 745)
    ---------------------------------------
 
    Vector Time (GMT): 2017/333/12:00:00.000
    Vector Time (MET): N/A
    Weight (LBS)     : 933812.0
 
              M50 Cartesian                         M50 Keplerian  
    -----------------------------------       --------------------------------
     X    =        3314627.16                 A    =         6777409.17  meter
     Y    =        2819534.93  meter          E    =           .0004412
     Z    =        5191962.08                 I    =           51.27656
     XDOT =      -3823.815202                 Wp   =          107.10821
     YDOT =       6556.596495  meter/sec      RA   =          293.45635  deg
     ZDOT =      -1119.915210                 TA   =          353.67239
                                              MA   =          353.67796
                                              Ha   =            221.370  n.mi
                                              Hp   =            214.015
 
              M50 Cartesian                         J2K Cartesian  
    -----------------------------------       --------------------------------
     X    =       10874761.01                 X    =         3257631.55
     Y    =        9250442.69  feet           Y    =         2856282.59  meter
     Z    =       17033996.33                 Z    =         5207925.42
     XDOT =     -12545.325465                 XDOT =       -3891.408529
     YDOT =      21511.143356  feet/sec       YDOT =        6513.458062  meter/sec
     ZDOT =      -3674.262499                 ZDOT =       -1138.654515
 
              TDR Cartesian                         TDR Cartesian  
    -----------------------------------       --------------------------------
     X    =      -12644371.58                 X    =        -3854004.46
     Y    =        6445949.82  feet           Y    =         1964725.51  meter
     Z    =       17104319.52                 Z    =         5213396.59
     XDOT =     -14679.292416                 XDOT =       -4474.248328
     YDOT =     -18826.025101  feet/sec       YDOT =       -5738.172451  meter/sec
     ZDOT =      -3758.466159                 ZDOT =       -1145.580485
  
  
    The mean element set is posted at the UTC for which position is
    just north of the next ascending node relative to the above
    vector time
 
 
    TWO LINE MEAN ELEMENT SET
  
    ISS
    1 25544U 98067A   17333.54628209  .00016717  00000-0  10270-3 0  9077
    2 25544  51.6388 293.9821 0003607 164.7409 195.3854 15.54255193  7466
  
  
    Satellite: ISS
    Catalog Number: 25544
    Epoch time:      17333.54628209   =   yrday.fracday
    Element set:     907
    Inclination:       51.6388  deg
    RA of node:       293.9821  deg
    Eccentricity:     .0003607     
    Arg of perigee:   164.7409  deg
    Mean anomaly:     195.3854  deg
    Mean motion:   15.54255193  rev/day
    Decay rate:    1.67170E-04  rev/day^2
    Epoch rev:             746
    Checksum:              337
 
 
    Coasting Arc #9 (Orbit 747)
    ---------------------------------------
 
    Vector Time (GMT): 2017/333/15:53:13.144
    Vector Time (MET): N/A
    Weight (LBS)     : 933686.4
 
              M50 Cartesian                         M50 Keplerian  
    -----------------------------------       --------------------------------
     X    =       -2943983.43                 A    =         6778699.16  meter
     Y    =       -3454526.49  meter          E    =           .0014228
     Z    =       -5047702.32                 I    =           51.27966
     XDOT =       4146.983170                 Wp   =          116.36284
     YDOT =      -6178.384123  meter/sec      RA   =          292.64016  deg
     ZDOT =       1807.453448                 TA   =          171.25931
                                              MA   =          171.23451
                                              Ha   =            221.462  n.mi
                                              Hp   =            214.585
 
              M50 Cartesian                         J2K Cartesian  
    -----------------------------------       --------------------------------
     X    =       -9658738.28                 X    =        -2880615.47
     Y    =      -11333748.33  feet           Y    =        -3487093.72  meter
     Z    =      -16560703.15                 Z    =        -5061849.70
     XDOT =      13605.587827                 XDOT =        4206.983418
     YDOT =     -20270.289119  feet/sec       YDOT =       -6131.674275  meter/sec
     ZDOT =       5929.965380                 ZDOT =        1827.744199
 
              TDR Cartesian                         TDR Cartesian  
    -----------------------------------       --------------------------------
     X    =        3517007.97                 X    =         1071984.03
     Y    =      -14398364.70  feet           Y    =        -4388621.56  meter
     Z    =      -16622867.20                 Z    =        -5066649.92
     XDOT =      23320.015990                 XDOT =        7107.940874
     YDOT =      -1263.371842  feet/sec       YDOT =        -385.075737  meter/sec
     ZDOT =       6020.984369                 ZDOT =        1835.196036
  
  
    The mean element set is posted at the UTC for which position is
    just north of the next ascending node relative to the above
    vector time
 
 
    TWO LINE MEAN ELEMENT SET
  
    ISS
    1 25544U 98067A   17333.67487486  .00016717  00000-0  10270-3 0  9082
    2 25544  51.6418 293.3417 0003244 180.3515 179.7636 15.54051385  7487
  
  
    Satellite: ISS
    Catalog Number: 25544
    Epoch time:      17333.67487486   =   yrday.fracday
    Element set:     908
    Inclination:       51.6418  deg
    RA of node:       293.3417  deg
    Eccentricity:     .0003244     
    Arg of perigee:   180.3515  deg
    Mean anomaly:     179.7636  deg
    Mean motion:   15.54051385  rev/day
    Decay rate:    1.67170E-04  rev/day^2
    Epoch rev:             748
    Checksum:              333
 
 
    Coasting Arc #10 (Orbit 761)
    ---------------------------------------
 
    Vector Time (GMT): 2017/334/13:25:00.000
    Vector Time (MET): N/A
    Weight (LBS)     : 933686.4
 
              M50 Cartesian                         M50 Keplerian  
    -----------------------------------       --------------------------------
     X    =       -4045103.82                 A    =         6777592.22  meter
     Y    =       -1294985.42  meter          E    =           .0015017
     Z    =       -5294406.00                 I    =           51.26306
     XDOT =       2364.935551                 Wp   =          102.15068
     YDOT =      -7283.238059  meter/sec      RA   =          288.16088  deg
     ZDOT =        -28.618318                 TA   =          167.59332
                                              MA   =          167.55631
                                              Ha   =            221.392  n.mi
                                              Hp   =            214.616
 
